OBJECT_NAME,OBJECT_ID,EPOCH,MEAN_MOTION,ECCENTRICITY,INCLINATION,RA_OF_ASC_NODE,ARG_OF_PERICENTER,MEAN_ANOMALY,EPHEMERIS_TYPE,CLASSIFICATION_TYPE,NORAD_CAT_ID,ELEMENT_SET_NO,REV_AT_EPOCH,BSTAR,MEAN_MOTION_DOT,MEAN_MOTION_DDOT
SKIF-D,2022-139D,2024-07-07T08:36:51.175296,5.00434091,.000683,89.9885,96.7974,44.4549,315.6671,0,U,54153,999,2859,0,.7E-7,0
MATS,2022-147A,2024-07-07T20:43:29.564832,14.97444829,.0013846,97.6630,188.0421,67.3541,292.9144,0,U,54227,999,9129,.33354E-3,.3832E-4,0
JILIN-1 GAOFEN 03D54,2022-155D,2024-07-06T12:51:49.545504,15.21784462,.0010688,97.5657,299.3593,36.3485,323.8475,0,U,54254,999,9061,.54487E-3,.1232E-3,0
EOS-6 (OCEANSAT-3),2022-158A,2024-07-08T00:55:40.709568,14.46974950,.0001873,98.3539,286.7876,107.0596,253.0801,0,U,54361,999,8528,.16115E-3,.542E-5,0
ANAND,2022-158F,2024-07-08T03:23:12.589152,15.61662141,.0002853,97.4377,299.5632,300.5416,59.5560,0,U,54366,999,9041,.97204E-3,.84286E-3,0
ASTROCAST-0304,2022-158G,2024-07-08T00:48:43.515072,15.34748107,.0007417,97.4430,293.1154,17.3076,342.8418,0,U,54367,999,8995,.37779E-3,.12661E-3,0
ASTROCAST-0303,2022-158H,2024-07-08T01:34:08.953824,15.34778142,.0006636,97.4455,293.6214,25.3008,334.8559,0,U,54368,999,8998,.39155E-3,.13136E-3,0
ASTROCAST-0302,2022-158J,2024-07-08T01:32:27.769056,15.34841828,.0006829,97.4458,293.4338,30.7613,329.4029,0,U,54369,999,8997,.3731E-3,.12539E-3,0
ASTROCAST-0301,2022-158K,2024-07-07T17:21:37.351872,15.34848217,.0005607,97.4479,293.2198,34.2356,325.9248,0,U,54370,999,8992,.43701E-3,.14704E-3,0
2022-167A,2022-167A,2024-07-08T00:31:06.003264,15.43599168,.0005193,97.5972,337.9333,64.7656,295.4129,0,U,54682,999,8769,.12308E-2,.55602E-3,0
CAS-5A (FO-118),2022-167C,2024-07-08T01:15:35.617248,15.31432561,.0010055,97.6077,335.3939,77.1287,283.1076,0,U,54684,999,8749,.83806E-3,.25454E-3,0
DONGPO 09,2022-167D,2024-07-08T00:52:16.673376,15.18066517,.0006013,97.6176,332.5139,97.7340,262.4576,0,U,54685,999,8727,.47212E-3,.9557E-4,0
DONGPO 08,2022-167E,2024-07-08T01:17:49.840512,15.17442488,.0011569,97.6129,332.1293,107.8182,252.4315,0,U,54686,999,8727,.49258E-3,.981E-4,0
2022-167F,2022-167F,2024-07-07T21:57:05.197536,15.18093358,.000895,97.5983,331.6014,85.5286,274.6970,0,U,54687,999,8726,.69806E-3,.14193E-3,0
DONGPO 10,2022-167H,2024-07-08T00:48:46.876032,15.17757214,.0011746,97.6203,332.6998,83.8821,276.3750,0,U,54689,999,8727,.47694E-3,.9582E-4,0
2022-167M,2022-167M,2024-07-08T01:32:15.539136,15.49312670,.0005116,97.5999,339.8230,68.3235,291.8560,0,U,54693,999,8775,.13339E-2,.73485E-3,0
JILIN-1 GAOFEN 03D48,2022-167P,2024-07-07T21:52:22.653984,15.17518555,.0013372,97.6140,332.2471,88.9602,271.3163,0,U,54695,999,8726,.46335E-3,.9248E-4,0
STAR VIBE,2023-001A,2024-07-08T01:56:43.634976,15.20262601,.0010469,97.4225,247.4998,118.6128,241.6161,0,U,55009,999,8368,.35913E-3,.7739E-4,0
BRO-8,2023-001C,2024-07-08T04:29:37.148928,15.19560201,.0011559,97.4293,247.9425,119.7082,240.5305,0,U,55011,999,8369,.27086E-3,.5702E-4,0
CONNECTA T1.2,2023-001D,2024-07-07T03:11:19.976640,15.23027281,.0012042,97.4303,248.0715,116.3588,243.8887,0,U,55012,999,8360,.32881E-3,.7684E-4,0
BIRKELAND,2023-001G,2024-07-08T03:51:26.431776,15.22658039,.0011041,97.4306,249.5275,110.2353,250.0071,0,U,55015,999,8379,.28132E-3,.6489E-4,0
ION SCV-008,2023-001AU,2024-07-07T06:35:23.015616,15.15075976,.0019064,97.6127,268.0407,337.0086,23.0291,0,U,55051,999,8332,.2416E-3,.4471E-4,0
ION SCV-007,2023-001BD,2024-07-07T04:49:41.944224,14.76000275,.0014023,97.9976,251.7866,104.5511,255.7255,0,U,55060,999,8145,.12363E-3,.801E-5,0
NSL-2,2023-001BL,2024-07-07T17:06:07.191936,16.07569385,.0012111,97.3962,261.6361,265.1991,94.7908,0,U,55067,999,8456,.22446E-2,.1737529E-1,.22137E-2
TAUSAT-2,2023-001BS,2024-07-07T11:30:39.402144,15.33544543,.0012703,97.4238,252.3630,79.6312,280.6362,0,U,55073,999,8394,.74525E-3,.24195E-3,0
FLOCK 4Y-23,2023-001BZ,2024-07-07T10:08:01.912704,15.29757859,.0013962,97.4253,251.6011,97.1604,263.1224,0,U,55080,999,8389,.43619E-3,.1254E-3,0
HUYGENS,2023-001CN,2024-07-08T03:51:36.372960,15.22670073,.0015329,97.4251,249.4731,92.7821,267.5170,0,U,55093,999,8381,.38348E-3,.8891E-4,0
BDSAT-2,2023-001CT,2024-07-07T17:19:45.844032,15.35200283,.0012232,97.4266,253.1948,90.4666,269.7979,0,U,55098,999,8400,.84527E-3,.28945E-3,0
SHARJAHSAT-1,2023-001CZ,2024-07-08T01:05:35.208960,15.21418837,.0011903,97.4243,247.9879,119.5778,240.6646,0,U,55104,999,8370,.44677E-3,.9983E-4,0
2023-003A,2023-003A,2024-07-07T22:39:14.033952,15.26389631,.0005949,97.2239,263.0430,141.2854,218.8812,0,U,55133,999,8284,.56733E-3,.14711E-3,0
2023-007P,2023-007P,2024-07-07T21:58:23.849184,15.61106413,.000716,97.3096,270.0772,165.7839,194.3621,0,U,55261,999,8300,.69396E-3,.58746E-3,0
