SKIF-D                  
1 54153U 22139D   24189.35892564  .00000007  00000+0  00000+0 0  9996
2 54153  89.9885  96.7974 0006830  44.4549 315.6671  5.00434091 28595
MATS                    
1 54227U 22147A   24189.86353663  .00003832  00000+0  33354-3 0  9996
2 54227  97.6630 188.0421 0013846  67.3541 292.9144 14.97444829 91299
JILIN-1 GAOFEN 03D54    
1 54254U 22155D   24188.53599011  .00012320  00000+0  54487-3 0  9999
2 54254  97.5657 299.3593 0010688  36.3485 323.8475 15.21784462 90611
EOS-6 (OCEANSAT-3)      
1 54361U 22158A   24190.03866562  .00000542  00000+0  16115-3 0  9996
2 54361  98.3539 286.7876 0001873 107.0596 253.0801 14.46974950 85280
ANAND                   
1 54366U 22158F   24190.14111793  .00084286  00000+0  97204-3 0  9997
2 54366  97.4377 299.5632 0002853 300.5416  59.5560 15.61662141 90413
ASTROCAST-0304          
1 54367U 22158G   24190.03383698  .00012661  00000+0  37779-3 0  9990
2 54367  97.4430 293.1154 0007417  17.3076 342.8418 15.34748107 89953
ASTROCAST-0303          
1 54368U 22158H   24190.06538141  .00013136  00000+0  39155-3 0  9997
2 54368  97.4455 293.6214 0006636  25.3008 334.8559 15.34778142 89981
ASTROCAST-0302          
1 54369U 22158J   24190.06421029  .00012539  00000+0  37310-3 0  9991
2 54369  97.4458 293.4338 0006829  30.7613 329.4029 15.34841828 89979
ASTROCAST-0301          
1 54370U 22158K   24189.72334898  .00014704  00000+0  43701-3 0  9998
2 54370  97.4479 293.2198 0005607  34.2356 325.9248 15.34848217 89920
2022-167A               
1 54682U 22167A   24190.02159726  .00055602  00000+0  12308-2 0  9994
2 54682  97.5972 337.9333 0005193  64.7656 295.4129 15.43599168 87692
CAS-5A (FO-118)         
1 54684U 22167C   24190.05249557  .00025454  00000+0  83806-3 0  9995
2 54684  97.6077 335.3939 0010055  77.1287 283.1076 15.31432561 87499
DONGPO 09               
1 54685U 22167D   24190.03630409  .00009557  00000+0  47212-3 0  9991
2 54685  97.6176 332.5139 0006013  97.7340 262.4576 15.18066517 87278
DONGPO 08               
1 54686U 22167E   24190.05404908  .00009810  00000+0  49258-3 0  9991
2 54686  97.6129 332.1293 0011569 107.8182 252.4315 15.17442488 87277
2022-167F               
1 54687U 22167F   24189.91464349  .00014193  00000+0  69806-3 0  9991
2 54687  97.5983 331.6014 0008950  85.5286 274.6970 15.18093358 87268
DONGPO 10               
1 54689U 22167H   24190.03387588  .00009582  00000+0  47694-3 0  9994
2 54689  97.6203 332.6998 0011746  83.8821 276.3750 15.17757214 87274
2022-167M               
1 54693U 22167M   24190.06406874  .00073485  00000+0  13339-2 0  9993
2 54693  97.5999 339.8230 0005116  68.3235 291.8560 15.49312670 87751
JILIN-1 GAOFEN 03D48    
1 54695U 22167P   24189.91137331  .00009248  00000+0  46335-3 0  9995
2 54695  97.6140 332.2471 0013372  88.9602 271.3163 15.17518555 87268
STAR VIBE               
1 55009U 23001A   24190.08106059  .00007739  00000+0  35913-3 0  9999
2 55009  97.4225 247.4998 0010469 118.6128 241.6161 15.20262601 83681
BRO-8                   
1 55011U 23001C   24190.18723552  .00005702  00000+0  27086-3 0  9996
2 55011  97.4293 247.9425 0011559 119.7082 240.5305 15.19560201 83695
CONNECTA T1.2           
1 55012U 23001D   24189.13287010  .00007684  00000+0  32881-3 0  9994
2 55012  97.4303 248.0715 0012042 116.3588 243.8887 15.23027281 83607
BIRKELAND               
1 55015U 23001G   24190.16072259  .00006489  00000+0  28132-3 0  9995
2 55015  97.4306 249.5275 0011041 110.2353 250.0071 15.22658039 83796
ION SCV-008             
1 55051U 23001AU  24189.27457194  .00004471  00000+0  24160-3 0  9996
2 55051  97.6127 268.0407 0019064 337.0086  23.0291 15.15075976 83323
ION SCV-007             
1 55060U 23001BD  24189.20117991  .00000801  00000+0  12363-3 0  9992
2 55060  97.9976 251.7866 0014023 104.5511 255.7255 14.76000275 81458
NSL-2                   
1 55067U 23001BL  24189.71258324  .01737529  22137-2  22446-2 0  9996
2 55067  97.3962 261.6361 0012111 265.1991  94.7908 16.07569385 84565
TAUSAT-2                
1 55073U 23001BS  24189.47962271  .00024195  00000+0  74525-3 0  9994
2 55073  97.4238 252.3630 0012703  79.6312 280.6362 15.33544543 83945
FLOCK 4Y-23             
1 55080U 23001BZ  24189.42224436  .00012540  00000+0  43619-3 0  9992
2 55080  97.4253 251.6011 0013962  97.1604 263.1224 15.29757859 83890
HUYGENS                 
1 55093U 23001CN  24190.16083765  .00008891  00000+0  38348-3 0  9994
2 55093  97.4251 249.4731 0015329  92.7821 267.5170 15.22670073 83812
BDSAT-2                 
1 55098U 23001CT  24189.72205838  .00028945  00000+0  84527-3 0  9998
2 55098  97.4266 253.1948 0012232  90.4666 269.7979 15.35200283 84006
SHARJAHSAT-1            
1 55104U 23001CZ  24190.04554640  .00009983  00000+0  44677-3 0  9994
2 55104  97.4243 247.9879 0011903 119.5778 240.6646 15.21418837 83700
2023-003A               
1 55133U 23003A   24189.94391243  .00014711  00000+0  56733-3 0  9994
2 55133  97.2239 263.0430 0005949 141.2854 218.8812 15.26389631 82847
2023-007P               
1 55261U 23007P   24189.91555381  .00058746  00000+0  69396-3 0  9997
2 55261  97.3096 270.0772 0007160 165.7839 194.3621 15.61106413 83008
